{"fetched_at":"2026-07-06T08:46:41.354Z","source":"https://celestrak.org/NORAD/elements/gp.php?GROUP=planet&FORMAT=JSON","constellation":"skysat","records":[{"OBJECT_NAME":"SKYSAT-A","OBJECT_ID":"2013-066C","EPOCH":"2026-07-05T02:43:48.838944","CLASSIFICATION_TYPE":"U","MEAN_MOTION":15.13077671,"ECCENTRICITY":0.0019751,"INCLINATION":97.3796,"RA_OF_ASC_NODE":234.9399,"ARG_OF_PERICENTER":250.3908,"MEAN_ANOMALY":109.5192,"EPHEMERIS_TYPE":0,"NORAD_CAT_ID":39418,"ELEMENT_SET_NO":999,"REV_AT_EPOCH":69119,"BSTAR":0.00024293,"MEAN_MOTION_DOT":0.00004253,"MEAN_MOTION_DDOT":0},{"OBJECT_NAME":"SKYSAT-B","OBJECT_ID":"2014-037D","EPOCH":"2026-07-04T21:03:13.404672","CLASSIFICATION_TYPE":"U","MEAN_MOTION":14.88075391,"ECCENTRICITY":0.00047281,"INCLINATION":98.3847,"RA_OF_ASC_NODE":145.8518,"ARG_OF_PERICENTER":208.3182,"MEAN_ANOMALY":151.7776,"EPHEMERIS_TYPE":0,"NORAD_CAT_ID":40072,"ELEMENT_SET_NO":999,"REV_AT_EPOCH":64859,"BSTAR":0.00019484651,"MEAN_MOTION_DOT":0.0000173,"MEAN_MOTION_DDOT":0},{"OBJECT_NAME":"SKYSAT-C1","OBJECT_ID":"2016-040C","EPOCH":"2026-07-05T01:28:23.949120","CLASSIFICATION_TYPE":"U","MEAN_MOTION":15.36622026,"ECCENTRICITY":0.0001497,"INCLINATION":96.9551,"RA_OF_ASC_NODE":216.8145,"ARG_OF_PERICENTER":20.1771,"MEAN_ANOMALY":339.9533,"EPHEMERIS_TYPE":0,"NORAD_CAT_ID":41601,"ELEMENT_SET_NO":999,"REV_AT_EPOCH":56061,"BSTAR":0.0004233,"MEAN_MOTION_DOT":0.00015073,"MEAN_MOTION_DDOT":0},{"OBJECT_NAME":"SKYSAT-C4","OBJECT_ID":"2016-058B","EPOCH":"2026-07-05T08:34:26.418144","CLASSIFICATION_TYPE":"U","MEAN_MOTION":15.49197861,"ECCENTRICITY":0.0002958,"INCLINATION":96.9168,"RA_OF_ASC_NODE":207.3742,"ARG_OF_PERICENTER":134.2075,"MEAN_ANOMALY":225.9421,"EPHEMERIS_TYPE":0,"NORAD_CAT_ID":41771,"ELEMENT_SET_NO":999,"REV_AT_EPOCH":54828,"BSTAR":0.00045403,"MEAN_MOTION_DOT":0.00024696,"MEAN_MOTION_DDOT":0},{"OBJECT_NAME":"SKYSAT-C5","OBJECT_ID":"2016-058C","EPOCH":"2026-07-05T02:25:18.922944","CLASSIFICATION_TYPE":"U","MEAN_MOTION":15.34742244,"ECCENTRICITY":0.0002214,"INCLINATION":97.0455,"RA_OF_ASC_NODE":225.9434,"ARG_OF_PERICENTER":182.6426,"MEAN_ANOMALY":177.4806,"EPHEMERIS_TYPE":0,"NORAD_CAT_ID":41772,"ELEMENT_SET_NO":999,"REV_AT_EPOCH":54649,"BSTAR":0.00038008,"MEAN_MOTION_DOT":0.00012733,"MEAN_MOTION_DDOT":0},{"OBJECT_NAME":"SKYSAT-C2","OBJECT_ID":"2016-058D","EPOCH":"2026-07-05T11:47:20.092992","CLASSIFICATION_TYPE":"U","MEAN_MOTION":15.42514446,"ECCENTRICITY":0.0002716,"INCLINATION":97.0162,"RA_OF_ASC_NODE":207.9008,"ARG_OF_PERICENTER":27.4889,"MEAN_ANOMALY":332.6502,"EPHEMERIS_TYPE":0,"NORAD_CAT_ID":41773,"ELEMENT_SET_NO":999,"REV_AT_EPOCH":54787,"BSTAR":0.00037853,"MEAN_MOTION_DOT":0.00016348,"MEAN_MOTION_DDOT":0},{"OBJECT_NAME":"SKYSAT-C3","OBJECT_ID":"2016-058E","EPOCH":"2026-07-05T07:33:20.539584","CLASSIFICATION_TYPE":"U","MEAN_MOTION":15.53370393,"ECCENTRICITY":0.0001758,"INCLINATION":96.8997,"RA_OF_ASC_NODE":216.4719,"ARG_OF_PERICENTER":134.8464,"MEAN_ANOMALY":225.2934,"EPHEMERIS_TYPE":0,"NORAD_CAT_ID":41774,"ELEMENT_SET_NO":999,"REV_AT_EPOCH":54892,"BSTAR":0.00055736,"MEAN_MOTION_DOT":0.0003523,"MEAN_MOTION_DDOT":0},{"OBJECT_NAME":"SKYSAT-C11","OBJECT_ID":"2017-068A","EPOCH":"2026-07-05T08:35:23.265024","CLASSIFICATION_TYPE":"U","MEAN_MOTION":15.58907151,"ECCENTRICITY":0.0000445,"INCLINATION":97.4369,"RA_OF_ASC_NODE":335.994,"ARG_OF_PERICENTER":164.4423,"MEAN_ANOMALY":195.6847,"EPHEMERIS_TYPE":0,"NORAD_CAT_ID":42987,"ELEMENT_SET_NO":999,"REV_AT_EPOCH":48607,"BSTAR":0.00050125,"MEAN_MOTION_DOT":0.00038861,"MEAN_MOTION_DDOT":0},{"OBJECT_NAME":"SKYSAT-C10","OBJECT_ID":"2017-068B","EPOCH":"2026-07-05T08:27:05.065344","CLASSIFICATION_TYPE":"U","MEAN_MOTION":15.34973806,"ECCENTRICITY":0.000128,"INCLINATION":97.453,"RA_OF_ASC_NODE":323.3818,"ARG_OF_PERICENTER":108.4758,"MEAN_ANOMALY":251.6624,"EPHEMERIS_TYPE":0,"NORAD_CAT_ID":42988,"ELEMENT_SET_NO":999,"REV_AT_EPOCH":48514,"BSTAR":0.00046873,"MEAN_MOTION_DOT":0.00015835,"MEAN_MOTION_DDOT":0},{"OBJECT_NAME":"SKYSAT-C9","OBJECT_ID":"2017-068C","EPOCH":"2026-07-05T08:19:16.417920","CLASSIFICATION_TYPE":"U","MEAN_MOTION":15.4203771,"ECCENTRICITY":0.0009276,"INCLINATION":97.4452,"RA_OF_ASC_NODE":324.4862,"ARG_OF_PERICENTER":76.0472,"MEAN_ANOMALY":284.1806,"EPHEMERIS_TYPE":0,"NORAD_CAT_ID":42989,"ELEMENT_SET_NO":999,"REV_AT_EPOCH":48555,"BSTAR":0.00046293,"MEAN_MOTION_DOT":0.00019723,"MEAN_MOTION_DDOT":0},{"OBJECT_NAME":"SKYSAT-C8","OBJECT_ID":"2017-068D","EPOCH":"2026-07-05T07:05:42.461376","CLASSIFICATION_TYPE":"U","MEAN_MOTION":15.37350391,"ECCENTRICITY":0.0001213,"INCLINATION":97.4548,"RA_OF_ASC_NODE":323.1943,"ARG_OF_PERICENTER":95.8413,"MEAN_ANOMALY":264.2969,"EPHEMERIS_TYPE":0,"NORAD_CAT_ID":42990,"ELEMENT_SET_NO":999,"REV_AT_EPOCH":48509,"BSTAR":0.00042793,"MEAN_MOTION_DOT":0.00015595,"MEAN_MOTION_DDOT":0},{"OBJECT_NAME":"SKYSAT-C7","OBJECT_ID":"2017-068E","EPOCH":"2026-07-05T08:31:03.326304","CLASSIFICATION_TYPE":"U","MEAN_MOTION":15.37304786,"ECCENTRICITY":0.0006539,"INCLINATION":97.456,"RA_OF_ASC_NODE":324.2451,"ARG_OF_PERICENTER":52.9349,"MEAN_ANOMALY":307.2493,"EPHEMERIS_TYPE":0,"NORAD_CAT_ID":42991,"ELEMENT_SET_NO":999,"REV_AT_EPOCH":48516,"BSTAR":0.00042213,"MEAN_MOTION_DOT":0.00015369,"MEAN_MOTION_DDOT":0},{"OBJECT_NAME":"SKYSAT-C6","OBJECT_ID":"2017-068F","EPOCH":"2026-07-05T08:15:25.239168","CLASSIFICATION_TYPE":"U","MEAN_MOTION":15.34296872,"ECCENTRICITY":0.0005198,"INCLINATION":97.4595,"RA_OF_ASC_NODE":324.1316,"ARG_OF_PERICENTER":102.0763,"MEAN_ANOMALY":258.1062,"EPHEMERIS_TYPE":0,"NORAD_CAT_ID":42992,"ELEMENT_SET_NO":999,"REV_AT_EPOCH":48510,"BSTAR":0.00043423,"MEAN_MOTION_DOT":0.00014354,"MEAN_MOTION_DDOT":0}]}
